{
  "type": "FeatureCollection",
  "features": [
    {
      "type": "Feature",
      "properties": {
        "norad_id": 66526,
        "name": "STARLINK-35932",
        "group": "last-30-days",
        "lat": 19.639726413512218,
        "lon": -113.0162434827899,
        "alt_km": 371.95536691555844,
        "timestamp": "2025-12-06T16:45:41.515767+00:00",
        "meta_object_name": "STARLINK-35932",
        "meta_object_id": "2025-265L",
        "meta_epoch": "2025-12-06T06:00:02.000160",
        "meta_mean_motion": 15.66563689,
        "meta_eccentricity": 0.00013003,
        "meta_inclination": 43.0001,
        "meta_ra_of_asc_node": 92.1842,
        "meta_arg_of_pericenter": 279.952,
        "meta_mean_anomaly": 220.2889,
        "meta_ephemeris_type": 0,
        "meta_classification_type": "U",
        "meta_norad_cat_id": 66526,
        "meta_element_set_no": 999,
        "meta_rev_at_epoch": 384,
        "meta_bstar": -0.0207015,
        "meta_mean_motion_dot": -0.01964834,
        "meta_mean_motion_ddot": 0,
        "tle_line1": "1 66526U 25265L   25340.25002315 -.01964834  00000+0 -20702-1 0  9995",
        "tle_line2": "2 66526  43.0001  92.1842 0001300 279.9520 220.2889 15.66563689  3840"
      },
      "geometry": {
        "type": "Point",
        "coordinates": [
          -113.0162434827899,
          19.639726413512218
        ]
      }
    },
    {
      "type": "Feature",
      "properties": {
        "norad_id": 66527,
        "name": "STARLINK-35935",
        "group": "last-30-days",
        "lat": 18.42485267843639,
        "lon": -111.45021801939744,
        "alt_km": 372.0994151668292,
        "timestamp": "2025-12-06T16:45:41.515777+00:00",
        "meta_object_name": "STARLINK-35935",
        "meta_object_id": "2025-265M",
        "meta_epoch": "2025-12-06T06:00:02.000160",
        "meta_mean_motion": 15.66563497,
        "meta_eccentricity": 0.0001257,
        "meta_inclination": 43.0001,
        "meta_ra_of_asc_node": 92.1796,
        "meta_arg_of_pericenter": 279.7957,
        "meta_mean_anomaly": 222.3628,
        "meta_ephemeris_type": 0,
        "meta_classification_type": "U",
        "meta_norad_cat_id": 66527,
        "meta_element_set_no": 999,
        "meta_rev_at_epoch": 395,
        "meta_bstar": -0.020706116,
        "meta_mean_motion_dot": -0.01965174,
        "meta_mean_motion_ddot": 0,
        "tle_line1": "1 66527U 25265M   25340.25002315 -.01965174  00000+0 -20706-1 0  9998",
        "tle_line2": "2 66527  43.0001  92.1796 0001257 279.7957 222.3628 15.66563497  3955"
      },
      "geometry": {
        "type": "Point",
        "coordinates": [
          -111.45021801939744,
          18.42485267843639
        ]
      }
    },
    {
      "type": "Feature",
      "properties": {
        "norad_id": 66528,
        "name": "STARLINK-35928",
        "group": "last-30-days",
        "lat": 17.197662635366854,
        "lon": -109.90700672407758,
        "alt_km": 372.25424319460126,
        "timestamp": "2025-12-06T16:45:41.515789+00:00",
        "meta_object_name": "STARLINK-35928",
        "meta_object_id": "2025-265N",
        "meta_epoch": "2025-12-06T06:00:02.000160",
        "meta_mean_motion": 15.66564115,
        "meta_eccentricity": 0.00012833,
        "meta_inclination": 43.0003,
        "meta_ra_of_asc_node": 92.1747,
        "meta_arg_of_pericenter": 278.6064,
        "meta_mean_anomaly": 225.4691,
        "meta_ephemeris_type": 0,
        "meta_classification_type": "U",
        "meta_norad_cat_id": 66528,
        "meta_element_set_no": 999,
        "meta_rev_at_epoch": 395,
        "meta_bstar": -0.020713487,
        "meta_mean_motion_dot": -0.01965854,
        "meta_mean_motion_ddot": 0,
        "tle_line1": "1 66528U 25265N   25340.25002315 -.01965854  00000+0 -20713-1 0  9992",
        "tle_line2": "2 66528  43.0003  92.1747 0001283 278.6064 225.4691 15.66564115  3952"
      },
      "geometry": {
        "type": "Point",
        "coordinates": [
          -109.90700672407758,
          17.197662635366854
        ]
      }
    },
    {
      "type": "Feature",
      "properties": {
        "norad_id": 66529,
        "name": "STARLINK-35933",
        "group": "last-30-days",
        "lat": 15.958183932708137,
        "lon": -108.3839370426607,
        "alt_km": 372.3766768305759,
        "timestamp": "2025-12-06T16:45:41.515801+00:00",
        "meta_object_name": "STARLINK-35933",
        "meta_object_id": "2025-265P",
        "meta_epoch": "2025-12-06T06:00:02.000160",
        "meta_mean_motion": 15.66566511,
        "meta_eccentricity": 0.00012039,
        "meta_inclination": 43.0002,
        "meta_ra_of_asc_node": 92.1696,
        "meta_arg_of_pericenter": 277.6765,
        "meta_mean_anomaly": 228.3165,
        "meta_ephemeris_type": 0,
        "meta_classification_type": "U",
        "meta_norad_cat_id": 66529,
        "meta_element_set_no": 999,
        "meta_rev_at_epoch": 395,
        "meta_bstar": -0.020768301,
        "meta_mean_motion_dot": -0.01970547,
        "meta_mean_motion_ddot": 0,
        "tle_line1": "1 66529U 25265P   25340.25002315 -.01970547  00000+0 -20768-1 0  9998",
        "tle_line2": "2 66529  43.0002  92.1696 0001203 277.6765 228.3165 15.66566511  3954"
      },
      "geometry": {
        "type": "Point",
        "coordinates": [
          -108.3839370426607,
          15.958183932708137
        ]
      }
    },
    {
      "type": "Feature",
      "properties": {
        "norad_id": 66530,
        "name": "STARLINK-35961",
        "group": "last-30-days",
        "lat": 14.708466209017722,
        "lon": -106.87957226074266,
        "alt_km": 372.5539307249692,
        "timestamp": "2025-12-06T16:45:41.515811+00:00",
        "meta_object_name": "STARLINK-35961",
        "meta_object_id": "2025-265Q",
        "meta_epoch": "2025-12-06T06:00:02.000160",
        "meta_mean_motion": 15.66562039,
        "meta_eccentricity": 0.00011679,
        "meta_inclination": 43,
        "meta_ra_of_asc_node": 92.1652,
        "meta_arg_of_pericenter": 279.6147,
        "meta_mean_anomaly": 228.2957,
        "meta_ephemeris_type": 0,
        "meta_classification_type": "U",
        "meta_norad_cat_id": 66530,
        "meta_element_set_no": 999,
        "meta_rev_at_epoch": 395,
        "meta_bstar": -0.020688693,
        "meta_mean_motion_dot": -0.01963548,
        "meta_mean_motion_ddot": 0,
        "tle_line1": "1 66530U 25265Q   25340.25002315 -.01963548  00000+0 -20689-1 0  9995",
        "tle_line2": "2 66530  43.0000  92.1652 0001167 279.6147 228.2957 15.66562039  3950"
      },
      "geometry": {
        "type": "Point",
        "coordinates": [
          -106.87957226074266,
          14.708466209017722
        ]
      }
    },
    {
      "type": "Feature",
      "properties": {
        "norad_id": 66531,
        "name": "STARLINK-35960",
        "group": "last-30-days",
        "lat": 13.449700099356331,
        "lon": -105.39379977460702,
        "alt_km": 372.71874832208414,
        "timestamp": "2025-12-06T16:45:41.515823+00:00",
        "meta_object_name": "STARLINK-35960",
        "meta_object_id": "2025-265R",
        "meta_epoch": "2025-12-06T06:00:02.000160",
        "meta_mean_motion": 15.66563582,
        "meta_eccentricity": 0.00012685,
        "meta_inclination": 43.0004,
        "meta_ra_of_asc_node": 92.1598,
        "meta_arg_of_pericenter": 278.1515,
        "meta_mean_anomaly": 231.6731,
        "meta_ephemeris_type": 0,
        "meta_classification_type": "U",
        "meta_norad_cat_id": 66531,
        "meta_element_set_no": 999,
        "meta_rev_at_epoch": 395,
        "meta_bstar": -0.020671338,
        "meta_mean_motion_dot": -0.0196228,
        "meta_mean_motion_ddot": 0,
        "tle_line1": "1 66531U 25265R   25340.25002315 -.01962280  00000+0 -20671-1 0  9999",
        "tle_line2": "2 66531  43.0004  92.1598 0001268 278.1515 231.6731 15.66563582  3951"
      },
      "geometry": {
        "type": "Point",
        "coordinates": [
          -105.39379977460702,
          13.449700099356331
        ]
      }
    },
    {
      "type": "Feature",
      "properties": {
        "norad_id": 66532,
        "name": "STARLINK-35914",
        "group": "last-30-days",
        "lat": 12.18181814617729,
        "lon": -103.92280643583614,
        "alt_km": 372.87419566922654,
        "timestamp": "2025-12-06T16:45:41.515833+00:00",
        "meta_object_name": "STARLINK-35914",
        "meta_object_id": "2025-265S",
        "meta_epoch": "2025-12-06T06:00:02.000160",
        "meta_mean_motion": 15.66566313,
        "meta_eccentricity": 0.00012705,
        "meta_inclination": 43.0002,
        "meta_ra_of_asc_node": 92.1551,
        "meta_arg_of_pericenter": 276.9143,
        "meta_mean_anomaly": 234.8308,
        "meta_ephemeris_type": 0,
        "meta_classification_type": "U",
        "meta_norad_cat_id": 66532,
        "meta_element_set_no": 999,
        "meta_rev_at_epoch": 395,
        "meta_bstar": -0.020771975,
        "meta_mean_motion_dot": -0.0197089,
        "meta_mean_motion_ddot": 0,
        "tle_line1": "1 66532U 25265S   25340.25002315 -.01970890  00000+0 -20772-1 0  9998",
        "tle_line2": "2 66532  43.0002  92.1551 0001270 276.9143 234.8308 15.66566313  3955"
      },
      "geometry": {
        "type": "Point",
        "coordinates": [
          -103.92280643583614,
          12.18181814617729
        ]
      }
    }
  ]
}